FENGYUN 1C DEB          
1 30349U 99025ABL 17345.81061047  .00001111  00000-0  79231-3 0  9990
2 30349  98.6097  88.5688 0096785 283.7364 197.1844 13.97144403553082
